[{"OBJECT_NAME":"STARLINK-2717","OBJECT_ID":"2021-044X","EPOCH":"2026-03-09T12:49:26.292576","MEAN_MOTION":15.30209793,"ECCENTRICITY":0.0001526,"INCLINATION":53.1579,"RA_OF_ASC_NODE":114.5637,"ARG_OF_PERICENTER":77.6748,"MEAN_ANOMALY":282.4423,"EPHEMERIS_TYPE":0,"CLASSIFICATION_TYPE":"U","NORAD_CAT_ID":48659,"ELEMENT_SET_NO":999,"REV_AT_EPOCH":26380,"BSTAR":9.5677639e-5,"MEAN_MOTION_DOT":2.476e-5,"MEAN_MOTION_DDOT":0},{"OBJECT_NAME":"CZ-4B DEB","OBJECT_ID":"1999-057H","EPOCH":"2026-03-09T17:25:29.363520","MEAN_MOTION":15.25756771,"ECCENTRICITY":0.00339549,"INCLINATION":98.6728,"RA_OF_ASC_NODE":149.1557,"ARG_OF_PERICENTER":175.409,"MEAN_ANOMALY":184.7463,"EPHEMERIS_TYPE":0,"CLASSIFICATION_TYPE":"U","NORAD_CAT_ID":26121,"ELEMENT_SET_NO":999,"REV_AT_EPOCH":41150,"BSTAR":0.00075758105,"MEAN_MOTION_DOT":0.00019602,"MEAN_MOTION_DDOT":0}]
